RADUGA 1 [-]            
1 08513U 75123A   17356.90188240 -.00000115  00000-0  00000+0 0  9996
2 08513  10.1613 309.9406 0005085 207.2519 338.1780  1.00248586163875
RADUGA 2 [-]            
1 09416U 76092A   17356.13396228  .00000024  00000-0  00000+0 0  9995
2 09416  10.7850 311.7956 0031376 307.6329 303.1987  1.00269288 98256
RADUGA 3 [-]            
1 10159U 77071A   17357.00850333 -.00000272  00000-0  00000+0 0  9994
2 10159  11.3413 314.0427 0007669 222.6759  16.0445  1.00205798145982
RADUGA 4 [-]            
1 10987U 78073A   17356.02965994  .00000146  00000-0  00000+0 0  9996
2 10987  11.8839 316.9548 0013997 307.5764 234.6127  1.00280586 88511
RADUGA 5 [-]            
1 11343U 79035A   17355.94432292 -.00000107  00000-0  00000+0 0  9990
2 11343  12.2691 319.2302 0000784 359.4656 188.0982  1.00296871 98245
RADUGA 6 [-]            
1 11708U 80016A   17356.01990531  .00000098  00000-0  00000+0 0  9998
2 11708  12.5373 321.7313 0004287 275.0958 271.4813  1.00319236 91075
RADUGA 7 [-]            
1 12003U 80081A   17356.83275168 -.00000242  00000-0  00000-0 0  9994
2 12003  12.6580 323.3538 0012762 252.2665  95.6303  1.00373828 92237
RADUGA 8 [-]            
1 12351U 81027A   17357.49257723 -.00000171  00000-0  00000+0 0  9991
2 12351  12.9574 324.1181 0083165 182.9388 274.4549  1.00347332 91439
RADUGA 9 [-]            
1 12618U 81069A   17356.98795907 -.00000002  00000-0  00000+0 0  9990
2 12618  13.0831 326.3611 0003412 322.8673 221.4153  1.00352279 97260
RADUGA 10 [-]           
1 12897U 81102A   17355.96296056 -.00000027  00000-0  00000-0 0  9993
2 12897  13.1344 327.1346 0001684 215.7441 321.9581  1.00288929 86264
RADUGA 11 [-]           
1 13669U 82113A   17356.07754491 -.00000084  00000-0  00000-0 0  9992
2 13669  14.6597 338.3406 0040554 216.0158 320.9939  0.97708228 91252
RADUGA 12 [-]           
1 13974U 83028A   17356.78099906 -.00000057  00000-0  00000-0 0  9998
2 13974  13.8580 335.5654 0004952 311.4117 157.0278  1.00251031138319
RADUGA 13 [-]           
1 14307U 83088A   17356.75343270 -.00000202  00000-0  00000-0 0  9990
2 14307  14.8034 340.0159 0018699 343.3171 185.6649  0.98175460 88526
RADUGA 14 [-]           
1 14725U 84016A   17356.95051178 -.00000092  00000-0  00000-0 0  9998
2 14725  13.8849 338.6955 0002389 310.7575 218.2786  1.00299348 87031
RADUGA 15 [-]           
1 15057U 84063A   17356.07363427  .00000090  00000-0  00000+0 0  9991
2 15057  13.9504 339.6722 0001193 269.5919 281.4780  1.00176902110018
RADUGA 16 [-]           
1 15946U 85070A   17356.60411684 -.00000070  00000-0  00000-0 0  9995
2 15946  14.1583 343.8777 0004844 277.8614 299.4199  1.00164315 91153
RADUGA 17 [-]           
1 16250U 85107A   17357.11131259 -.00000168  00000-0  00000+0 0  9996
2 16250  14.2089 345.0621 0007576 171.0018 245.0313  1.00129898120777
RADUGA 18 [-]           
1 16497U 86007A   17357.16990595 -.00000145  00000-0  00000+0 0  9995
2 16497  14.8939 347.3813 0068329 122.3492 230.9872  0.98814210115307
RADUGA 19 [-]           
1 17046U 86082A   17356.81874605 -.00000236  00000-0  00000-0 0  9995
2 17046  15.0869 350.8959 0005548 115.0344  71.7689  0.98462309112405
RADUGA 20 [-]           
1 17611U 87028A   17356.07091473 -.00000077  00000-0  00000-0 0  9999
2 17611  16.9101 354.4321 0021563  93.1866  83.7817  0.95961576108571
RADUGA 21 [-]           
1 18631U 87100A   17356.40449529 -.00000293  00000-0  00000+0 0  9998
2 18631  15.0524 352.6349 0003403 279.9947 273.9788  1.00274983110007
RADUGA 22 [-]           
1 19596U 88095A   17356.14823630  .00000116  00000-0  00000+0 0  9996
2 19596  14.7663 356.3204 0000946 277.6725 252.9761  1.00325128 90628
RADUGA 23 [-]           
1 19928U 89030A   17357.02313984 -.00000177  00000-0  00000+0 0  9997
2 19928  14.7898 357.9903 0015207 128.4512  54.5689  1.00364438103776
RADUGA-1 1 [-]          
1 20083U 89048A   17357.04782503 -.00000203  00000-0  00000+0 0  9999
2 20083  15.3604   0.6298 0015159  63.5416   1.1157  0.98709263100678
RADUGA 24 [-]           
1 20367U 89098A   17356.06110605 -.00000129  00000-0  00000+0 0  9995
2 20367  15.1941   0.5328 0005020 262.6688 288.9468  1.00206544101957
RADUGA 25 [-]           
1 20499U 90016A   17356.39751126 -.00000252  00000-0  00000+0 0  9995
2 20499  14.9270   0.9588 0004393 266.8101 291.0042  1.00299333101877
RADUGA 26 [-]           
1 21016U 90112A   17356.13131647  .00000076  00000-0  00000+0 0  9993
2 21016  15.0052   4.0929 0004471 333.2711 213.6194  1.00273341 99167
RADUGA-1 2 [-]          
1 21038U 90116A   17356.07376385  .00000045  00000-0  00000-0 0  9991
2 21038  15.0366   4.2014 0003792   2.8265 168.9215  1.00228499 16264
RADUGA 27 [-]           
1 21132U 91014A   17356.48399340 -.00000368  00000-0  00000-0 0  9994
2 21132  15.5616   4.3314 0004452 291.9467  84.9718  1.00334836 98241
RADUGA 28 [-]           
1 21821U 91087A   17356.78265994  .00000012  00000-0  00000-0 0  9994
2 21821  15.0705   7.4808 0000597 342.1801  87.6002  1.00185910 95250
RADUGA 29 [-]           
1 22557U 93013A   17357.00953755 -.00000276  00000-0  00000+0 0  9999
2 22557  14.9607  11.5739 0001883 305.9673 234.8398  1.00171348 90628
RADUGA 30 [-]           
1 22836U 93062A   17356.06819559 -.00000161  00000-0  00000-0 0  9995
2 22836  14.8624  13.4032 0007981 260.4484 282.6003  1.00275090 14925
RADUGA-1 3 [-]          
1 22981U 94008A   17357.00991611 -.00000311  00000-0  00000+0 0  9998
2 22981  14.8527  14.5853 0004285 266.2339 274.0243  1.00291249 87440
RADUGA 31 [-]           
1 23010U 94012A   17355.18313104  .00000097  00000-0  00000+0 0  9999
2 23010  14.8216  14.5746 0003020 295.7634 253.4620  1.00304414 87259
RADUGA 32 [-]           
1 23448U 94087A   17356.62611462 -.00000150  00000-0  00000-0 0  9996
2 23448  14.6045  17.1103 0009563 224.2128 155.4530  1.00276213101816
RADUGA-1 4 [-]          
1 25642U 99010A   17355.73101479  .00000116  00000-0  00000-0 0  9999
2 25642  14.2772  29.2785 0007208 232.3945 135.6615  1.00321116 68873
RADUGA-1 5 [-]          
1 26477U 00049A   17356.72685073  .00000119  00000-0  00000-0 0  9990
2 26477  11.9598  31.7714 0004049 270.0463  97.3021  1.00247433 63356
RADUGA-1 6 [-]          
1 26936U 01045A   17356.61937226 -.00000037  00000-0  00000-0 0  9995
2 26936  11.6659  37.2276 0014836 146.8481  24.7167  0.97743328 58314
RADUGA-1 7 [-]          
1 28194U 04010A   17356.71116274  .00000113  00000-0  00000-0 0  9995
2 28194   9.9720  44.4597 0004818 215.9473 107.6739  1.00241150 50336
RADUGA-1M 1 [-]         
1 32373U 07058A   17356.81712581 -.00000236  00000-0  00000+0 0  9994
2 32373   3.4610  72.8070 0005773 214.0604  48.3539  0.99398061 37521
RADUGA-1 8 [-]          
1 34264U 09010A   17357.46163417  .00000114  00000-0  00000+0 0  9999
2 34264   6.1022  66.6464 0010897 295.4761 121.9309  0.99819787 32247
RADUGA-1M 2 [+]         
1 36358U 10002A   17357.10254529 -.00000174  00000-0  00000+0 0  9991
2 36358   0.0105 313.3562 0002772 358.1825 262.2113  1.00271557 28944
RADUGA-1M 3 [+]         
1 39375U 13062A   17356.90188240 -.00000030  00000-0  00000-0 0  9997
2 39375   0.0151  49.3567 0003689 243.0688 193.9109  1.00272881 15060
